[{"OBJECT_NAME":"STARLINK-5698","OBJECT_ID":"2023-020BG","EPOCH":"2026-03-08T19:52:51.679488","MEAN_MOTION":15.02530382,"ECCENTRICITY":0.00016502,"INCLINATION":43.0061,"RA_OF_ASC_NODE":356.0095,"ARG_OF_PERICENTER":265.2734,"MEAN_ANOMALY":94.792,"EPHEMERIS_TYPE":0,"CLASSIFICATION_TYPE":"U","NORAD_CAT_ID":55623,"ELEMENT_SET_NO":999,"REV_AT_EPOCH":16894,"BSTAR":2.7835577e-5,"MEAN_MOTION_DOT":1.72e-6,"MEAN_MOTION_DDOT":0},{"OBJECT_NAME":"OBJECT H","OBJECT_ID":"2025-292H","EPOCH":"2026-03-09T22:24:53.558208","MEAN_MOTION":15.06373042,"ECCENTRICITY":0.00142604,"INCLINATION":97.6442,"RA_OF_ASC_NODE":145.7846,"ARG_OF_PERICENTER":348.9217,"MEAN_ANOMALY":11.1694,"EPHEMERIS_TYPE":0,"CLASSIFICATION_TYPE":"U","NORAD_CAT_ID":67000,"ELEMENT_SET_NO":999,"REV_AT_EPOCH":1338,"BSTAR":0.0005462937,"MEAN_MOTION_DOT":8.001e-5,"MEAN_MOTION_DDOT":0}]
